{
  "type": "FeatureCollection",
  "features": [
    {
      "type": "Feature",
      "properties": {
        "norad_id": 27954,
        "name": "GALAXY 13 (HORIZONS-1)",
        "group": "intelsat",
        "lat": 0.6774629701190005,
        "lon": -143.85938879821182,
        "alt_km": 35778.23526122243,
        "timestamp": "2025-12-03T19:33:06.647016+00:00",
        "meta_object_name": "GALAXY 13 (HORIZONS-1)",
        "meta_object_id": "2003-044A",
        "meta_epoch": "2025-12-03T11:00:11.280096",
        "meta_mean_motion": 1.0027255,
        "meta_eccentricity": 0.0002077,
        "meta_inclination": 0.9116,
        "meta_ra_of_asc_node": 86.5866,
        "meta_arg_of_pericenter": 161.0801,
        "meta_mean_anomaly": 199.9225,
        "meta_ephemeris_type": 0,
        "meta_classification_type": "U",
        "meta_norad_cat_id": 27954,
        "meta_element_set_no": 999,
        "meta_rev_at_epoch": 4461,
        "meta_bstar": 0,
        "meta_mean_motion_dot": 1.51e-06,
        "meta_mean_motion_ddot": 0,
        "tle_line1": "1 27954U 03044A   25337.45846389  .00000151  00000+0  00000+0 0  9990",
        "tle_line2": "2 27954   0.9116  86.5866 0002077 161.0801 199.9225  1.00272550 44612"
      },
      "geometry": {
        "type": "Point",
        "coordinates": [
          -143.85938879821182,
          0.6774629701190005
        ]
      }
    },
    {
      "type": "Feature",
      "properties": {
        "norad_id": 28358,
        "name": "INTELSAT 10-02",
        "group": "intelsat",
        "lat": -0.0041565693374961,
        "lon": 5.171825503005639,
        "alt_km": 35786.47134910645,
        "timestamp": "2025-12-03T19:33:06.647042+00:00",
        "meta_object_name": "INTELSAT 10-02",
        "meta_object_id": "2004-022A",
        "meta_epoch": "2025-12-03T08:51:10.514880",
        "meta_mean_motion": 1.00270156,
        "meta_eccentricity": 0.0001042,
        "meta_inclination": 0.0367,
        "meta_ra_of_asc_node": 79.1202,
        "meta_arg_of_pericenter": 196.9462,
        "meta_mean_anomaly": 288.1968,
        "meta_ephemeris_type": 0,
        "meta_classification_type": "U",
        "meta_norad_cat_id": 28358,
        "meta_element_set_no": 999,
        "meta_rev_at_epoch": 7859,
        "meta_bstar": 0,
        "meta_mean_motion_dot": 8e-08,
        "meta_mean_motion_ddot": 0,
        "tle_line1": "1 28358U 04022A   25337.36887170  .00000008  00000+0  00000+0 0  9990",
        "tle_line2": "2 28358   0.0367  79.1202 0001042 196.9462 288.1968  1.00270156 78592"
      },
      "geometry": {
        "type": "Point",
        "coordinates": [
          5.171825503005639,
          -0.0041565693374961
        ]
      }
    },
    {
      "type": "Feature",
      "properties": {
        "norad_id": 28626,
        "name": "XM-3 (RHYTHM)",
        "group": "intelsat",
        "lat": 0.13500717026373,
        "lon": 162.80541633380156,
        "alt_km": 36162.95276120351,
        "timestamp": "2025-12-03T19:33:06.647087+00:00",
        "meta_object_name": "XM-3 (RHYTHM)",
        "meta_object_id": "2005-008A",
        "meta_epoch": "2025-12-02T19:08:10.315968",
        "meta_mean_motion": 0.98955046,
        "meta_eccentricity": 8.644e-05,
        "meta_inclination": 0.1467,
        "meta_ra_of_asc_node": 80.743,
        "meta_arg_of_pericenter": 265.9206,
        "meta_mean_anomaly": 173.7506,
        "meta_ephemeris_type": 0,
        "meta_classification_type": "U",
        "meta_norad_cat_id": 28626,
        "meta_element_set_no": 999,
        "meta_rev_at_epoch": 4065,
        "meta_bstar": 0,
        "meta_mean_motion_dot": -2.32e-06,
        "meta_mean_motion_ddot": 0,
        "tle_line1": "1 28626U 05008A   25336.79734162 -.00000232  00000+0  00000+0 0  9991",
        "tle_line2": "2 28626   0.1467  80.7430 0000864 265.9206 173.7506  0.98955046 40654"
      },
      "geometry": {
        "type": "Point",
        "coordinates": [
          162.80541633380156,
          0.13500717026373
        ]
      }
    },
    {
      "type": "Feature",
      "properties": {
        "norad_id": 28659,
        "name": "DIRECTV 8",
        "group": "intelsat",
        "lat": -0.038350132676741894,
        "lon": -112.89419423793949,
        "alt_km": 35772.54522790498,
        "timestamp": "2025-12-03T19:33:06.647103+00:00",
        "meta_object_name": "DIRECTV 8",
        "meta_object_id": "2005-019A",
        "meta_epoch": "2025-12-03T09:45:51.160032",
        "meta_mean_motion": 1.0027137,
        "meta_eccentricity": 0.0003313,
        "meta_inclination": 0.0162,
        "meta_ra_of_asc_node": 311.7689,
        "meta_arg_of_pericenter": 309.09,
        "meta_mean_anomaly": 199.0642,
        "meta_ephemeris_type": 0,
        "meta_classification_type": "U",
        "meta_norad_cat_id": 28659,
        "meta_element_set_no": 999,
        "meta_rev_at_epoch": 7511,
        "meta_bstar": 0,
        "meta_mean_motion_dot": 2e-07,
        "meta_mean_motion_ddot": 0,
        "tle_line1": "1 28659U 05019A   25337.40684213  .00000020  00000+0  00000+0 0  9993",
        "tle_line2": "2 28659   0.0162 311.7689 0003313 309.0900 199.0642  1.00271370 75113"
      },
      "geometry": {
        "type": "Point",
        "coordinates": [
          -112.89419423793949,
          -0.038350132676741894
        ]
      }
    },
    {
      "type": "Feature",
      "properties": {
        "norad_id": 28702,
        "name": "GALAXY 28 (G-28)",
        "group": "intelsat",
        "lat": -0.7942687791365998,
        "lon": -82.54697503328389,
        "alt_km": 35775.95079775314,
        "timestamp": "2025-12-03T19:33:06.647116+00:00",
        "meta_object_name": "GALAXY 28 (G-28)",
        "meta_object_id": "2005-022A",
        "meta_epoch": "2025-12-03T09:54:35.322912",
        "meta_mean_motion": 1.00272322,
        "meta_eccentricity": 0.0002666,
        "meta_inclination": 2.7948,
        "meta_ra_of_asc_node": 81.3891,
        "meta_arg_of_pericenter": 169.5585,
        "meta_mean_anomaly": 241.5015,
        "meta_ephemeris_type": 0,
        "meta_classification_type": "U",
        "meta_norad_cat_id": 28702,
        "meta_element_set_no": 999,
        "meta_rev_at_epoch": 5001,
        "meta_bstar": 0,
        "meta_mean_motion_dot": -1.7e-06,
        "meta_mean_motion_ddot": 0,
        "tle_line1": "1 28702U 05022A   25337.41290883 -.00000170  00000+0  00000+0 0  9990",
        "tle_line2": "2 28702   2.7948  81.3891 0002666 169.5585 241.5015  1.00272322 50013"
      },
      "geometry": {
        "type": "Point",
        "coordinates": [
          -82.54697503328389,
          -0.7942687791365998
        ]
      }
    },
    {
      "type": "Feature",
      "properties": {
        "norad_id": 29236,
        "name": "GALAXY 16 (G-16)",
        "group": "intelsat",
        "lat": -0.0037444385564610323,
        "lon": -92.85291078071415,
        "alt_km": 35774.494931444286,
        "timestamp": "2025-12-03T19:33:06.647127+00:00",
        "meta_object_name": "GALAXY 16 (G-16)",
        "meta_object_id": "2006-023A",
        "meta_epoch": "2025-12-03T09:51:35.610048",
        "meta_mean_motion": 1.00270132,
        "meta_eccentricity": 0.0002909,
        "meta_inclination": 0.0247,
        "meta_ra_of_asc_node": 220.4527,
        "meta_arg_of_pericenter": 34.8063,
        "meta_mean_anomaly": 226.1304,
        "meta_ephemeris_type": 0,
        "meta_classification_type": "U",
        "meta_norad_cat_id": 29236,
        "meta_element_set_no": 999,
        "meta_rev_at_epoch": 7101,
        "meta_bstar": 0,
        "meta_mean_motion_dot": -1.08e-06,
        "meta_mean_motion_ddot": 0,
        "tle_line1": "1 29236U 06023A   25337.41082882 -.00000108  00000+0  00000+0 0  9994",
        "tle_line2": "2 29236   0.0247 220.4527 0002909  34.8063 226.1304  1.00270132 71016"
      },
      "geometry": {
        "type": "Point",
        "coordinates": [
          -92.85291078071415,
          -0.0037444385564610323
        ]
      }
    },
    {
      "type": "Feature",
      "properties": {
        "norad_id": 29494,
        "name": "DIRECTV 9S",
        "group": "intelsat",
        "lat": -0.07806991099746331,
        "lon": -95.04168953975277,
        "alt_km": 35773.2372932585,
        "timestamp": "2025-12-03T19:33:06.647139+00:00",
        "meta_object_name": "DIRECTV 9S",
        "meta_object_id": "2006-043A",
        "meta_epoch": "2025-12-03T09:50:58.170336",
        "meta_mean_motion": 1.00270573,
        "meta_eccentricity": 0.0003202,
        "meta_inclination": 1.9142,
        "meta_ra_of_asc_node": 83.3095,
        "meta_arg_of_pericenter": 168.2729,
        "meta_mean_anomaly": 227.4569,
        "meta_ephemeris_type": 0,
        "meta_classification_type": "U",
        "meta_norad_cat_id": 29494,
        "meta_element_set_no": 999,
        "meta_rev_at_epoch": 4942,
        "meta_bstar": 0,
        "meta_mean_motion_dot": -9.5e-07,
        "meta_mean_motion_ddot": 0,
        "tle_line1": "1 29494U 06043A   25337.41039549 -.00000095  00000+0  00000+0 0  9999",
        "tle_line2": "2 29494   1.9142  83.3095 0003202 168.2729 227.4569  1.00270573 49426"
      },
      "geometry": {
        "type": "Point",
        "coordinates": [
          -95.04168953975277,
          -0.07806991099746331
        ]
      }
    }
  ]
}